NORAD_CAT_ID,OBJECT_NAME,OBJECT_TYPE,EPOCH,MEAN_MOTION,ECCENTRICITY,INCLINATION,RA_OF_ASC_NODE,ARG_OF_PERICENTER,MEAN_ANOMALY,BSTAR,MEAN_MOTION_DOT,MEAN_MOTION_DDOT,TLE_LINE0,TLE_LINE1,TLE_LINE2,SEMIMAJOR_AXIS,PERIOD,APOGEE,PERIGEE,DECAYED
52366.0,STARLINK-3808,PAYLOAD,2022-07-04 14:00:01,15.73079211,0.000293,53.2157,111.119,18.3925,2.2077,0.0010445,0.00147825,0.0,0 STARLINK-3808,1 52366U 22045AM  22185.58334491  .00147825  00000-0  10445-2 0  9993,2 52366  53.2157 111.1190 0002930  18.3925   2.2077 15.73079211 12886,6728.24,91.54,352.076,348.1330000000001,0.0
52366.0,STARLINK-3808,PAYLOAD,2022-07-04 22:00:00,15.73215844,0.0002918,53.2156,109.4702,17.5433,91.9124,4.4347e-05,5.610000000000002e-05,0.0,0 STARLINK-3808,1 52366U 22045AM  22185.91667824  .00005610  00000-0  44347-4 0  9994,2 52366  53.2156 109.4702 0002918  17.5433  91.9124 15.73215844  1302,6727.85,91.532,351.67800000000005,347.75199999999984,0.0
52366.0,STARLINK-3808,PAYLOAD,2022-07-05 08:00:01,15.73243424,0.0003078999999999,53.215,107.4092,15.1129,295.5447,0.00025374,0.00035211,0.0,0 STARLINK-3808,1 52366U 22045AM  22186.33334491  .00035211  00000-0  25374-3 0  9990,2 52366  53.2150 107.4092 0003079  15.1129 295.5447 15.73243424 13006,6727.771,91.531,351.708,347.565,0.0
52366.0,STARLINK-3808,PAYLOAD,2022-07-05 14:00:01,15.73272858,0.0002829,53.2154,106.1703,15.9017,271.502,-0.00042944,-0.0006066,0.0,0 STARLINK-3808,1 52366U 22045AM  22186.58334491 -.00060660  00000-0 -42944-3 0  9997,2 52366  53.2154 106.1703 0002829  15.9017 271.5020 15.73272858  1305,6727.687,91.529,351.456,347.649,0.0
52366.0,STARLINK-3808,PAYLOAD,2022-07-05 22:00:00,15.73229595,0.0002895,53.2162,104.5195,17.8141,358.5829,-0.00047499,-0.00066857,0.0,0 STARLINK-3808,1 52366U 22045AM  22186.91667824 -.00066857  00000-0 -47499-3 0  9997,2 52366  53.2162 104.5195 0002895  17.8141 358.5829 15.73229595 13095,6727.811,91.531,351.62300000000016,347.728,0.0
52366.0,STARLINK-3808,PAYLOAD,2022-07-06 06:00:00,15.73282168,0.0003102,53.2165,102.8692,17.5615,87.7358,-0.0034397,-0.00459758,0.0,0 STARLINK-3808,1 52366U 22045AM  22187.25001157 -.00459758  00000-0 -34397-2 0  9994,2 52366  53.2165 102.8692 0003102  17.5615  87.7358 15.73282168 13156,6727.661,91.528,351.61300000000006,347.439,0.0
52366.0,STARLINK-3808,PAYLOAD,2022-07-06 14:00:01,15.73061673,0.0002821,53.2174,101.2145,13.9537,180.1732,-0.0083866,-0.010537,0.0,0 STARLINK-3808,1 52366U 22045AM  22187.58334491 -.01053700  00000-0 -83866-2 0  9993,2 52366  53.2174 101.2145 0002821  13.9537 180.1732 15.73061673 13208,6728.29,91.541,352.05300000000005,348.25699999999995,0.0
52366.0,STARLINK-3808,PAYLOAD,2022-07-06 22:00:00,15.72302453,0.000268,53.2175,99.5654,12.3239,270.1003,-0.0086807999999999,-0.01055354,0.0,0 STARLINK-3808,1 52366U 22045AM  22187.91667824 -.01055354  00000-0 -86808-2 0  9995,2 52366  53.2175  99.5654 0002680  12.3239 270.1003 15.72302453  1300,6730.455,91.585,354.124,350.517,0.0
52366.0,STARLINK-3808,PAYLOAD,2022-07-07 06:00:02,15.71541595,0.00027,53.2171,97.9183,9.7408,0.1331,-0.0089357999999999,-0.01051986,0.0,0 STARLINK-3808,1 52366U 22045AM  22188.25002315 -.01051986  00000-0 -89358-2 0  9991,2 52366  53.2171  97.9183 0002700   9.7408   0.1331 15.71541595 13305,6732.628000000002,91.63,356.31,352.675,0.0
52366.0,STARLINK-3808,PAYLOAD,2022-07-07 14:00:01,15.70785043,0.0002858,53.2172,96.2701,355.0548,101.2258,-0.0092796,-0.01057421,0.0,0 STARLINK-3808,1 52366U 22045AM  22188.58334491 -.01057421  00000-0 -92796-2 0  9990,2 52366  53.2172  96.2701 0002858 355.0548 101.2258 15.70785043  1305,6734.7890000000025,91.674,358.579,354.72900000000016,0.0
52366.0,STARLINK-3808,PAYLOAD,2022-07-07 22:00:00,15.70021086,0.0003122,53.2174,94.6268,11.0326,170.808,-0.0095045,-0.01049718,0.0,0 STARLINK-3808,1 52366U 22045AM  22188.91667824 -.01049718  00000-0 -95045-2 0  9996,2 52366  53.2174  94.6268 0003122  11.0326 170.8080 15.70021086 13415,6736.974,91.719,360.942,356.735,0.0
52366.0,STARLINK-3808,PAYLOAD,2022-07-08 14:00:01,15.68500601,9.03e-05,53.2173,91.3425,59.8427,290.3802,-0.010104,-0.01046694,0.0,0 STARLINK-3808,1 52366U 22045AM  22189.58334491 -.01046694  00000-0 -10104-1 0  9993,2 52366  53.2173  91.3425 0000903  59.8427 290.3802 15.68500601 13512,6741.3269999999975,91.807,363.801,362.583,0.0
52366.0,STARLINK-3808,PAYLOAD,2022-07-08 22:00:01,15.67744063,0.0001195,53.2175,89.7051,58.4184,14.6884,-0.010471,-0.01050981,0.0,0 STARLINK-3808,1 52366U 22045AM  22189.91668981 -.01050981  00000-0 -10471-1 0  9995,2 52366  53.2175  89.7051 0001195  58.4184  14.6884 15.67744063  1301,6743.495,91.852,366.166,364.555,0.0
52366.0,STARLINK-3808,PAYLOAD,2022-07-09 06:00:00,15.66985514,0.0001161,53.2171,88.0688,87.8783,67.0709,-0.010812,-0.01051848,0.0,0 STARLINK-3808,1 52366U 22045AM  22190.25001157 -.01051848  00000-0 -10812-1 0  9992,2 52366  53.2171  88.0688 0001161  87.8783  67.0709 15.66985514 13622,6745.670999999999,91.896,368.32,366.753,0.0
52366.0,STARLINK-3808,PAYLOAD,2022-07-09 14:00:01,15.66223805,0.0001173,53.2171,86.4317,75.9257,160.0214,-0.011111,-0.01048302,0.0,0 STARLINK-3808,1 52366U 22045AM  22190.58334491 -.01048302  00000-0 -11111-1 0  9992,2 52366  53.2171  86.4317 0001173  75.9257 160.0214 15.66223805  1305,6747.858,91.941,370.515,368.932,0.0
52366.0,STARLINK-3808,PAYLOAD,2022-07-09 20:00:01,15.65654364,0.0001279,53.2175,85.2075,69.2489,136.8454,-0.011369,-0.01048226,0.0,0 STARLINK-3808,1 52366U 22045AM  22190.83334491 -.01048226  00000-0 -11369-1 0  9990,2 52366  53.2175  85.2075 0001279  69.2489 136.8454 15.65654364  1301,6749.494000000002,91.974,372.223,370.496,0.0
52366.0,STARLINK-3808,PAYLOAD,2022-07-10 14:00:01,15.63946108,0.0001178,53.2173,81.5375,67.292,46.1664,-0.012192,-0.01049452,0.0,0 STARLINK-3808,1 52366U 22045AM  22191.58334491 -.01049452  00000-0 -12192-1 0  9990,2 52366  53.2173  81.5375 0001178  67.2920  46.1664 15.63946108  1301,6754.408,92.075,377.069,375.478,0.0
52366.0,STARLINK-3808,PAYLOAD,2022-07-10 22:00:00,15.63184396,0.0001312,53.2175,79.9114,69.6557,121.1475,-0.012507,-0.01045038,0.0,0 STARLINK-3808,1 52366U 22045AM  22191.91667824 -.01045038  00000-0 -12507-1 0  9992,2 52366  53.2175  79.9114 0001312  69.6557 121.1475 15.63184396 13880,6756.602,92.12,379.354,377.581,0.0
52366.0,STARLINK-3808,PAYLOAD,2022-07-11 14:00:01,15.61665462,0.0001014,53.2172,76.6599,79.2709,263.4858,-0.013281,-0.01061484,0.0,0 STARLINK-3808,1 52366U 22045AM  22192.58334491 -.01061484  00000-0 -13281-1 0  9990,2 52366  53.2172  76.6599 0001014  79.2709 263.4858 15.61665462 13985,6760.983,92.209,383.533,382.162,0.0
52366.0,STARLINK-3808,PAYLOAD,2022-07-11 22:00:00,15.60908775,0.0001248,53.2174,75.0395,54.8877,2.4737,-0.013727,-0.01065023,0.0,0 STARLINK-3808,1 52366U 22045AM  22192.91667824 -.01065023  00000-0 -13727-1 0  9994,2 52366  53.2174  75.0395 0001248  54.8877   2.4737 15.60908775  1304,6763.168000000002,92.254,385.877,384.189,0.0
52366.0,STARLINK-3808,PAYLOAD,2022-07-12 06:00:00,15.60149206,0.0001175,53.2171,73.4191,79.14699999999998,51.9091,-0.01413,-0.01064569,0.0,0 STARLINK-3808,1 52366U 22045AM  22193.25001157 -.01064569  00000-0 -14130-1 0  9996,2 52366  53.2171  73.4191 0001175  79.1470  51.9091 15.60149206 14093,6765.363,92.299,388.023,386.4330000000001,0.0
52366.0,STARLINK-3808,PAYLOAD,2022-07-12 14:00:01,15.59389067,0.000126,53.2172,71.7989,75.3663,128.4729,-0.014541,-0.0106406,0.0,0 STARLINK-3808,1 52366U 22045AM  22193.58334491 -.01064060  00000-0 -14541-1 0  9994,2 52366  53.2172  71.7989 0001260  75.3663 128.4729 15.59389067  1304,6767.561,92.344,390.279,388.573,0.0
52366.0,STARLINK-3808,PAYLOAD,2022-07-12 22:00:00,15.58628214,0.0001279,53.2173,70.1842,63.3496,212.358,-0.0149259999999999,-0.01061219,0.0,0 STARLINK-3808,1 52366U 22045AM  22193.91667824 -.01061219  00000-0 -14926-1 0  9990,2 52366  53.2173  70.1842 0001279  63.3496 212.3580 15.58628214  1304,6769.763000000001,92.389,392.494,390.762,0.0
52366.0,STARLINK-3808,PAYLOAD,2022-07-13 06:00:00,15.57870951,0.0001008,53.2173,68.5691,90.3744,256.2891,-0.01541,-0.01064194,0.0,0 STARLINK-3808,1 52366U 22045AM  22194.25001157 -.01064194  00000-0 -15410-1 0  9993,2 52366  53.2173  68.5691 0001008  90.3744 256.2891 15.57870951 14259,6771.956999999999,92.434,394.505,393.139,0.0
52366.0,STARLINK-3808,PAYLOAD,2022-07-13 14:00:01,15.57109055,0.0001115,53.2175,66.9544,68.9986,347.7108,-0.015809,-0.01061126,0.0,0 STARLINK-3808,1 52366U 22045AM  22194.58334491 -.01061126  00000-0 -15809-1 0  9993,2 52366  53.2175  66.9544 0001115  68.9986 347.7108 15.57109055  1307,6774.166,92.479,396.786,395.275,0.0
52366.0,STARLINK-3808,PAYLOAD,2022-07-13 22:00:00,15.56350661,0.0001424,53.2175,65.3454,54.3796,71.4591,-0.016277,-0.01061904,0.0,0 STARLINK-3808,1 52366U 22045AM  22194.91667824 -.01061904  00000-0 -16277-1 0  9993,2 52366  53.2175  65.3454 0001424  54.3796  71.4591 15.56350661 14357,6776.366,92.524,399.196,397.266,0.0
52366.0,STARLINK-3808,PAYLOAD,2022-07-14 14:00:01,15.54830608,0.0001262999999999,53.2174,62.1265,68.2181,193.1465,-0.01719,-0.0105996,0.0,0 STARLINK-3808,1 52366U 22045AM  22195.58334491 -.01059960  00000-0 -17190-1 0  9992,2 52366  53.2174  62.1265 0001263  68.2181 193.1465 15.54830608  1309,6780.781999999997,92.615,403.503,401.791,0.0
52366.0,STARLINK-3808,PAYLOAD,2022-07-14 22:00:00,15.54072832,0.0001324,53.2173,60.523,51.44,276.3159,-0.017726,-0.01062648,0.0,0 STARLINK-3808,1 52366U 22045AM  22195.91667824 -.01062648  00000-0 -17726-1 0  9990,2 52366  53.2173  60.5230 0001324  51.4400 276.3159 15.54072832 14505,6782.986,92.66,405.749,403.953,0.0
52366.0,STARLINK-3808,PAYLOAD,2022-07-15 14:00:01,15.52552057,0.0001271,53.2174,57.3151,62.2752,35.5308,-0.018672,-0.01059162,0.0,0 STARLINK-3808,1 52366U 22045AM  22196.58334491 -.01059162  00000-0 -18672-1 0  9993,2 52366  53.2174  57.3151 0001271  62.2752  35.5308 15.52552057  1308,6787.415,92.751,410.143,408.417,0.0
